[{"OBJECT_NAME":"OBJECT A","OBJECT_ID":"2022-023A","EPOCH":"2026-03-07T09:13:29.633664","MEAN_MOTION":15.18202647,"ECCENTRICITY":0.00985337,"INCLINATION":63.4765,"RA_OF_ASC_NODE":256.024,"ARG_OF_PERICENTER":341.4326,"MEAN_ANOMALY":18.3199,"EPHEMERIS_TYPE":0,"CLASSIFICATION_TYPE":"U","NORAD_CAT_ID":51946,"ELEMENT_SET_NO":999,"REV_AT_EPOCH":22226,"BSTAR":0.00019500419,"MEAN_MOTION_DOT":4.303e-5,"MEAN_MOTION_DDOT":0},{"OBJECT_NAME":"BLUEBON","OBJECT_ID":"2025-009CH","EPOCH":"2026-03-09T16:52:33.225312","MEAN_MOTION":15.29047254,"ECCENTRICITY":0.00011933,"INCLINATION":97.4017,"RA_OF_ASC_NODE":152.2033,"ARG_OF_PERICENTER":43.39,"MEAN_ANOMALY":316.7434,"EPHEMERIS_TYPE":0,"CLASSIFICATION_TYPE":"U","NORAD_CAT_ID":62688,"ELEMENT_SET_NO":999,"REV_AT_EPOCH":6376,"BSTAR":0.00037313027,"MEAN_MOTION_DOT":0.00010452,"MEAN_MOTION_DDOT":0}]
